CUBEBUG-2 (LO-74)       
1 39440U 13066AA  26194.31983033  .00001926  00000+0  18122-3 0  9992
2 39440  97.8910 143.4139 0055889 301.7151  57.8628 14.93959309680893
FUNCUBE-1 (AO-73)       
1 39444U 13066AE  26194.17185030  .00003608  00000+0  22375-3 0  9995
2 39444  97.8287 166.1678 0038086 114.1842 246.3375 15.09803151683581
UWE-3                   
1 39446U 13066AG  26193.81399014  .00001937  00000+0  16916-3 0  9993
2 39446  97.8701 150.0656 0047510 232.8178 126.8701 14.97190018681416
UNISAT-6                
1 40012U 14033C   26193.88297015  .00001227  00000+0  13623-3 0  9998
2 40012  97.7905 346.1482 0044362 345.5085  14.4856 14.88361311649983
DUCHIFAT-1              
1 40021U 14033M   26193.68571964  .00110396  00000+0  89146-3 0  9995
2 40021  98.0440 256.5455 0002164 257.9613 102.1405 15.70510170659743
QB50P1                  
1 40025U 14033R   26193.52077436  .00005256  00000+0  25721-3 0  9994
2 40025  98.0964 206.4495 0010219 132.7489 227.4606 15.18640557656877
LILACSAT-2              
1 40908U 15049K   26194.25780539  .00012053  00000+0  19948-3 0  9995
2 40908  97.4628 232.1008 0008322 147.2345 212.9425 15.52311882599796
FOX-1A (AO-85)          
1 40967U 15058D   26194.30948310  .00001693  00000+0  15967-3 0  9994
2 40967  64.7723 197.7955 0132199  46.5234 314.6780 14.91081487117460
CAS-2T & KS-1Q          
1 41847U 16066G   26194.21207593  .00000617  00000+0  94682-4 0  9990
2 41847  98.3814 269.6505 0342350  50.7667 312.3386 14.44767960508557
RADFXSAT (FOX-1B)       
1 43017U 17073E   26194.06889025  .00003953  00000+0  17410-3 0  9998
2 43017  97.4673  60.7567 0148137 238.8927 119.7700 15.13044164469303
DIWATA-2B               
1 43678U 18084H   26194.24381800  .00001139  00000+0  95376-4 0  9994
2 43678  98.1217  31.5932 0012944  90.2808 269.9897 15.00558401420126
ES'HAIL 2               
1 43700U 18090A   26194.28076836  .00000141  00000+0  00000+0 0  9998
2 43700   0.0035 116.9627 0002165  43.0890 257.9676  1.00269877 27937
FOX-1CLIFF (AO-95)      
1 43770U 18099N   26194.15889186  .00007642  00000+0  28877-3 0  9999
2 43770  97.4377 254.3164 0007100 248.3656 111.6827 15.27248870417188
ITASAT                  
1 43786U 18099AE  26194.10440876  .00004125  00000+0  19803-3 0  9992
2 43786  97.4018 245.1017 0010797 258.8384 101.1638 15.19367142416843
JY1SAT (JO-97)          
1 43803U 18099AX  26192.68722269  .00009972  00000+0  30109-3 0  9999
2 43803  97.4124 255.6172 0006517 168.9842 191.1545 15.34443331417382
UWE-4                   
1 43880U 18111E   26193.76628622  .00027634  00000+0  53442-3 0  9997
2 43880  97.5844 123.3656 0005747 204.5147 155.5830 15.47716069414736
TIANYAN 01              
1 44881U 19093C   26194.29628601  .00000924  00000+0  11025-3 0  9999
2 44881  97.7528 265.8906 0013746   7.8840 352.2589 14.86560696355298
RS-44 & BREEZE-KM R/B   
1 44909U 19096E   26194.27389624  .00000003  00000+0 -40731-4 0  9996
2 44909  82.5240 322.3706 0218552  83.4628 279.1302 12.79748945305688
SALSAT                  
1 46495U 20068K   26193.91391395  .00004828  00000+0  16824-3 0  9990
2 46495  97.8853 198.5521 0008922 201.3461 158.7407 15.30153171319292
XW-3 (CAS-9)            
1 50466U 21131B   26194.29484086  .00000213  00000+0  79346-4 0  9990
2 50466  98.4988 286.5437 0004707  35.6709 324.4794 14.41380696238875
GREENCUBE (IO-117)      
1 53109U 22080E   26193.70867104 -.00000003  00000+0  00000+0 0  9996
2 53109  70.1415 289.3709 0009030 284.1311  75.8345  6.42583319 93700
UMKA 1 (RS40S)          
1 57172U 23091G   26194.27817408  .00003262  00000+0  14951-3 0  9991
2 57172  97.5041 252.8775 0013230  35.8443 324.3678 15.21108338167977
CUBESX-HSE 3 (RS42S)    
1 57178U 23091N   26194.24277737  .00007703  00000+0  25269-3 0  9997
2 57178  97.5085 260.1684 0009869   9.0302 351.1115 15.31854227168412
MONITOR-3 (RS58S)       
1 57180U 23091Q   26194.26037724  .00006254  00000+0  22892-3 0  9991
2 57180  97.5076 257.9045 0011205  16.5924 343.5680 15.28349287168277
MONITOR-4 (RS57S)       
1 57182U 23091S   26194.30345098  .00006085  00000+0  22222-3 0  9993
2 57182  97.5070 257.9205 0011196  16.7048 343.4558 15.28435958168284
MONITOR-2 (RS39S)       
1 57184U 23091U   26194.26679207  .00002706  00000+0  13190-3 0  9992
2 57184  97.5063 252.3826 0011582  30.3531 329.8372 15.19143959167912
SVYATOBOR 1 (RS60S)     
1 57187U 23091X   26194.27413947  .00005150  00000+0  19677-3 0  9995
2 57187  97.5082 258.2407 0008939  11.5167 348.6275 15.27043244168292
VIZARD-METEO (RS38S)    
1 57189U 23091Z   26194.26379787  .00010411  00000+0  29129-3 0  9998
2 57189  97.5086 264.2845 0005831 347.6613  12.4487 15.36836081168692
POLYTECH-UNIVERSE 3 (R*)
1 57191U 23091AB  26194.22458547  .00002989  00000+0  14423-3 0  9991
2 57191  97.5037 251.8448 0016226  44.1679 316.0848 15.19355796167900
UTMN 2 (RS27S)          
1 57203U 23091AP  26194.24631340  .00007526  00000+0  24094-3 0  9998
2 57203  97.5081 261.8374 0006922 357.4678   2.6527 15.32672434168531
